[{"OBJECT_NAME":"CONNECTA IOT-8","OBJECT_ID":"2025-009CQ","EPOCH":"2026-03-09T17:14:43.751616","MEAN_MOTION":14.92891251,"ECCENTRICITY":0.00022918,"INCLINATION":97.7124,"RA_OF_ASC_NODE":148.5526,"ARG_OF_PERICENTER":4.6494,"MEAN_ANOMALY":355.4746,"EPHEMERIS_TYPE":0,"CLASSIFICATION_TYPE":"U","NORAD_CAT_ID":62695,"ELEMENT_SET_NO":999,"REV_AT_EPOCH":6245,"BSTAR":0.00043246249,"MEAN_MOTION_DOT":4.428e-5,"MEAN_MOTION_DDOT":0},{"OBJECT_NAME":"GSLV R\/B","OBJECT_ID":"2022-138AN","EPOCH":"2026-03-09T17:17:59.229888","MEAN_MOTION":14.96774296,"ECCENTRICITY":0.00230204,"INCLINATION":87.3876,"RA_OF_ASC_NODE":166.352,"ARG_OF_PERICENTER":146.6269,"MEAN_ANOMALY":213.6419,"EPHEMERIS_TYPE":0,"CLASSIFICATION_TYPE":"U","NORAD_CAT_ID":54149,"ELEMENT_SET_NO":999,"REV_AT_EPOCH":18393,"BSTAR":0.00032104808,"MEAN_MOTION_DOT":3.719e-5,"MEAN_MOTION_DDOT":0}]
